GLOBALSTAR M035         
1 25851U 99037A   25030.49301911 -.00000037  00000+0  10240-2 0  9996
2 25851  51.9986   2.0366 0013762 118.0601  21.0219 11.04535939 81042
GLOBALSTAR M032         
1 25852U 99037B   25030.41636404 -.00000079  00000+0 -40934-3 0  9998
2 25852  51.9919 196.9084 0009985 298.8544  61.1253 11.19056125119365
GLOBALSTAR M051         
1 25853U 99037C   25030.30972394 -.00000055  00000+0  41021-3 0  9999
2 25853  51.9822  13.5046 0000886 328.4026  31.6731 11.42200918116634
GLOBALSTAR M030         
1 25854U 99037D   25030.66676925 -.00000080  00000+0 -11377-3 0  9990
2 25854  51.9847 187.4918 0004405 149.7860 210.3211 11.55104136134258
GLOBALSTAR M048         
1 25872U 99041A   25030.52949492 -.00000036  00000+0  92093-3 0  9996
2 25872  51.9387 302.6900 0013002 309.9820 221.0119 11.33853909109363
GLOBALSTAR M026         
1 25873U 99041B   25030.50345228  .00000026  00000+0  33199-2 0  9991
2 25873  52.0004 121.4205 0001572  57.7645 315.8211 11.06826163133240
GLOBALSTAR M043         
1 25874U 99041C   25030.48098176 -.00000068  00000+0  17955-4 0  9997
2 25874  51.9419  44.9576 0013339  79.4747  90.9566 11.25690602107363
GLOBALSTAR M028         
1 25875U 99041D   25030.60334940 -.00000069  00000+0  20755-3 0  9996
2 25875  51.9601 243.3157 0063941 131.9164 228.7173 12.50576282172990
